1 25994U 99068A   09004.47142967  .00000094  00000-0  30848-4 0  2841
2 25994  98.2199  81.8329 0001267 119.2269 240.9054 14.57105131481315
1 25994U 99068A   09004.74610906  .00000007  00000-0  11726-4 0  2853
2 25994  98.2199  82.1039 0001267 119.5968 240.5343 14.57104764481358
1 25994U 99068A   09005.08945860 -.00000010  00000-0  79302-5 0  2862
2 25994  98.2201  82.4428 0001293 119.5491 240.5828 14.57104646481400
1 25994U 99068A   09005.29546834 -.00000022  00000-0  51936-5 0  2870
2 25994  98.2201  82.6460 0001281 118.6949 241.4382 14.57104671481439
1 25994U 99068A   09005.84482698 -.00000025  00000-0  45716-5 0  2881
2 25994  98.2200  83.1880 0001319 118.0195 242.1126 14.57104653481512
1 25994U 99068A   09006.18817654  .00000032  00000-0  17189-4 0  2893
2 25994  98.2197  83.5270 0001308 118.0722 242.0630 14.57105009481568
1 25994U 99068A   09006.46285552  .00000004  00000-0  10975-4 0  2907
2 25994  98.2197  83.7980 0001321 118.4502 241.6833 14.57104962481605
1 25994U 99068A   09006.73753486 -.00000021  00000-0  54248-5 0  2916
2 25994  98.2195  84.0691 0001287 117.0342 243.0986 14.57104897481640
1 25994U 99068A   09006.94354445 -.00000003  00000-0  94886-5 0  2924
2 25994  98.2196  84.2724 0001287 116.4159 243.7168 14.57104917481674
1 25994U 99068A   09007.08088423  .00000018  00000-0  14118-4 0  2924
2 25994  98.2196  84.4078 0001284 116.3580 243.7756 14.57105038481692
1 25994U 99068A   09007.21822382  .00000049  00000-0  21040-4 0  2936
2 25994  98.2196  84.5436 0001284 117.4520 242.6827 14.57105283481719
1 25994U 99068A   09007.83625187  .00000090  00000-0  29942-4 0  2944
2 25994  98.2195  85.1535 0001296 116.0272 244.1060 14.57105581481804
1 25994U 99068A   09008.04226132  .00000073  00000-0  26366-4 0  2954
2 25994  98.2195  85.3567 0001316 116.3073 243.8250 14.57105463481835
1 25994U 99068A   09008.31694081  .00000105  00000-0  33402-4 0  2962
2 25994  98.2196  85.6279 0001322 117.9478 242.1871 14.57105738481872
1 25994U 99068A   09008.59161972  .00000097  00000-0  31499-4 0  2975
2 25994  98.2195  85.8989 0001332 117.7107 242.4232 14.57105840481912
1 25994U 99068A   09008.86629885  .00000068  00000-0  25171-4 0  2986
2 25994  98.2198  86.1702 0001323 117.2029 242.9293 14.57105677481954
1 25994U 99068A   09009.14097833  .00000087  00000-0  29276-4 0  2981
2 25994  98.2200  86.4412 0001327 117.6135 242.5208 14.57105863481998
1 25994U 99068A   09009.34698756  .00000061  00000-0  23512-4 0  2994
2 25994  98.2199  86.6446 0001351 118.0040 242.1291 14.57105773482024
1 25994U 99068A   09009.82767619 -.00000030  00000-0  34404-5 0  3005
2 25994  98.2201  87.1192 0001347 116.6071 243.5240 14.57105354482096
1 25994U 99068A   09010.17102594 -.00000006  00000-0  86513-5 0  3012
2 25994  98.2197  87.4580 0001317 115.4187 244.7166 14.57105561482142
1 25994U 99068A   09010.51437471  .00000016  00000-0  13702-4 0  3025
2 25994  98.2198  87.7969 0001338 115.7965 244.3381 14.57105737482192
1 25994U 99068A   09010.78905377  .00000015  00000-0  13373-4 0  3033
2 25994  98.2197  88.0679 0001347 115.1208 245.0132 14.57105786482238
1 25994U 99068A   09011.06373306  .00000028  00000-0  16342-4 0  3040
2 25994  98.2199  88.3390 0001362 115.2832 244.8505 14.57105757482277
1 25994U 99068A   09011.47575166  .00000023  00000-0  15273-4 0  3051
2 25994  98.2198  88.7455 0001380 115.6162 244.5177 14.57105907482338
1 25994U 99068A   09011.81910069  .00000019  00000-0  14370-4 0  3067
2 25994  98.2200  89.0844 0001378 113.9284 246.2057 14.57105942482381
1 25994U 99068A   09011.88777053 -.00000004  00000-0  90975-5 0  3070
2 25994  98.2200  89.1522 0001397 114.7269 245.4064 14.57105743482397
1 25994U 99068A   09012.09378017  .00000030  00000-0  16739-4 0  3074
2 25994  98.2200  89.3554 0001384 113.2753 246.8601 14.57105972482422
1 25994U 99068A   09012.50579867  .00000059  00000-0  23078-4 0  3082
2 25994  98.2200  89.7620 0001381 113.0716 247.0630 14.57106196482484
1 25994U 99068A   09012.71180798  .00000044  00000-0  19836-4 0  3098
2 25994  98.2199  89.9652 0001384 112.4593 247.6756 14.57106239482514
1 25994U 99068A   09013.12382682  .00000051  00000-0  21375-4 0  3101
2 25994  98.2196  90.3717 0001405 112.4044 247.7305 14.57106240482573
1 25994U 99068A   09013.32983615  .00000073  00000-0  26303-4 0  3117
2 25994  98.2194  90.5751 0001402 112.2936 247.8419 14.57106416482602
