OBJECT_NAME,OBJECT_ID,EPOCH,MEAN_MOTION,ECCENTRICITY,INCLINATION,RA_OF_ASC_NODE,ARG_OF_PERICENTER,MEAN_ANOMALY,EPHEMERIS_TYPE,CLASSIFICATION_TYPE,NORAD_CAT_ID,ELEMENT_SET_NO,REV_AT_EPOCH,BSTAR,MEAN_MOTION_DOT,MEAN_MOTION_DDOT
TERRA,1999-068A,2009-01-04T11:18:51.523488,14.57105131,.0001267,98.2199,81.8329,119.2269,240.9054,0,U,25994,284,48131,.30848E-4,.94E-6,0
TERRA,1999-068A,2009-01-04T17:54:23.822784,14.57104764,.0001267,98.2199,82.1039,119.5968,240.5343,0,U,25994,285,48135,.11726E-4,.7E-7,0
TERRA,1999-068A,2009-01-05T02:08:49.223040,14.57104646,.0001293,98.2201,82.4428,119.5491,240.5828,0,U,25994,286,48140,.79302E-5,-.1E-6,0
TERRA,1999-068A,2009-01-05T07:05:28.464576,14.57104671,.0001281,98.2201,82.6460,118.6949,241.4382,0,U,25994,287,48143,.51936E-5,-.22E-6,0
TERRA,1999-068A,2009-01-05T20:16:33.051072,14.57104653,.0001319,98.2200,83.1880,118.0195,242.1126,0,U,25994,288,48151,.45716E-5,-.25E-6,0
TERRA,1999-068A,2009-01-06T04:30:58.453056,14.57105009,.0001308,98.2197,83.5270,118.0722,242.0630,0,U,25994,289,48156,.17189E-4,.32E-6,0
TERRA,1999-068A,2009-01-06T11:06:30.716928,14.57104962,.0001321,98.2197,83.7980,118.4502,241.6833,0,U,25994,290,48160,.10975E-4,.4E-7,0
TERRA,1999-068A,2009-01-06T17:42:03.011904,14.57104897,.0001287,98.2195,84.0691,117.0342,243.0986,0,U,25994,291,48164,.54248E-5,-.21E-6,0
TERRA,1999-068A,2009-01-06T22:38:42.240480,14.57104917,.0001287,98.2196,84.2724,116.4159,243.7168,0,U,25994,292,48167,.94886E-5,-.3E-7,0
TERRA,1999-068A,2009-01-07T01:56:28.397472,14.57105038,.0001284,98.2196,84.4078,116.3580,243.7756,0,U,25994,292,48169,.14118E-4,.18E-6,0
TERRA,1999-068A,2009-01-07T05:14:14.538048,14.57105283,.0001284,98.2196,84.5436,117.4520,242.6827,0,U,25994,293,48171,.2104E-4,.49E-6,0
TERRA,1999-068A,2009-01-07T20:04:12.161568,14.57105581,.0001296,98.2195,85.1535,116.0272,244.1060,0,U,25994,294,48180,.29942E-4,.9E-6,0
TERRA,1999-068A,2009-01-08T01:00:51.378048,14.57105463,.0001316,98.2195,85.3567,116.3073,243.8250,0,U,25994,295,48183,.26366E-4,.73E-6,0
TERRA,1999-068A,2009-01-08T07:36:23.685984,14.57105738,.0001322,98.2196,85.6279,117.9478,242.1871,0,U,25994,296,48187,.33402E-4,.105E-5,0
TERRA,1999-068A,2009-01-08T14:11:55.943808,14.57105840,.0001332,98.2195,85.8989,117.7107,242.4232,0,U,25994,297,48191,.31499E-4,.97E-6,0
TERRA,1999-068A,2009-01-08T20:47:28.220640,14.57105677,.0001323,98.2198,86.1702,117.2029,242.9293,0,U,25994,298,48195,.25171E-4,.68E-6,0
TERRA,1999-068A,2009-01-09T03:23:00.527712,14.57105863,.0001327,98.2200,86.4412,117.6135,242.5208,0,U,25994,298,48199,.29276E-4,.87E-6,0
TERRA,1999-068A,2009-01-09T08:19:39.725184,14.57105773,.0001351,98.2199,86.6446,118.0040,242.1291,0,U,25994,299,48202,.23512E-4,.61E-6,0
TERRA,1999-068A,2009-01-09T19:51:51.222816,14.57105354,.0001347,98.2201,87.1192,116.6071,243.5240,0,U,25994,300,48209,.34404E-5,-.3E-6,0
TERRA,1999-068A,2009-01-10T04:06:16.641216,14.57105561,.0001317,98.2197,87.4580,115.4187,244.7166,0,U,25994,301,48214,.86513E-5,-.6E-7,0
TERRA,1999-068A,2009-01-10T12:20:41.974944,14.57105737,.0001338,98.2198,87.7969,115.7965,244.3381,0,U,25994,302,48219,.13702E-4,.16E-6,0
TERRA,1999-068A,2009-01-10T18:56:14.245728,14.57105786,.0001347,98.2197,88.0679,115.1208,245.0132,0,U,25994,303,48223,.13373E-4,.15E-6,0
TERRA,1999-068A,2009-01-11T01:31:46.536384,14.57105757,.0001362,98.2199,88.3390,115.2832,244.8505,0,U,25994,304,48227,.16342E-4,.28E-6,0
TERRA,1999-068A,2009-01-11T11:25:04.943424,14.57105907,.000138,98.2198,88.7455,115.6162,244.5177,0,U,25994,305,48233,.15273E-4,.23E-6,0
TERRA,1999-068A,2009-01-11T19:39:30.299616,14.57105942,.0001378,98.2200,89.0844,113.9284,246.2057,0,U,25994,306,48238,.1437E-4,.19E-6,0
TERRA,1999-068A,2009-01-11T21:18:23.373792,14.57105743,.0001397,98.2200,89.1522,114.7269,245.4064,0,U,25994,307,48239,.90975E-5,-.4E-7,0
TERRA,1999-068A,2009-01-12T02:15:02.606688,14.57105972,.0001384,98.2200,89.3554,113.2753,246.8601,0,U,25994,307,48242,.16739E-4,.3E-6,0
TERRA,1999-068A,2009-01-12T12:08:21.005088,14.57106196,.0001381,98.2200,89.7620,113.0716,247.0630,0,U,25994,308,48248,.23078E-4,.59E-6,0
TERRA,1999-068A,2009-01-12T17:05:00.209472,14.57106239,.0001384,98.2199,89.9652,112.4593,247.6756,0,U,25994,309,48251,.19836E-4,.44E-6,0
TERRA,1999-068A,2009-01-13T02:58:18.637248,14.57106240,.0001405,98.2196,90.3717,112.4044,247.7305,0,U,25994,310,48257,.21375E-4,.51E-6,0
TERRA,1999-068A,2009-01-13T07:54:57.843360,14.57106416,.0001402,98.2194,90.5751,112.2936,247.8419,0,U,25994,311,48260,.26303E-4,.73E-6,0
